{
 "generated_at": "2026-07-09T08:28:01Z",
 "sources": [
  {
   "name": "CelesTrak",
   "url": "https://celestrak.org/NORAD/elements/",
   "license": "frei verfügbar; Attribution. Ursprünglich USSPACECOM/Space-Track."
  },
  {
   "name": "GCAT (J. McDowell, planet4589.org)",
   "url": "https://planet4589.org/space/gcat/",
   "license": "CC-BY 4.0"
  }
 ],
 "satellites": [
  {
   "norad": 41884,
   "name": "CYGFM05",
   "intl": "2016-078A",
   "group": "weather",
   "gcat": {
    "class": "C",
    "category": "EOSCI",
    "owner": "LARCN/SWRIB",
    "state": "US"
   },
   "omm": {
    "OBJECT_NAME": "CYGFM05",
    "OBJECT_ID": "2016-078A",
    "EPOCH": "2026-07-08T21:55:07.170816",
    "MEAN_MOTION": 15.57638566,
    "ECCENTRICITY": 0.00072114,
    "INCLINATION": 34.9557,
    "RA_OF_ASC_NODE": 116.6186,
    "ARG_OF_PERICENTER": 337.468,
    "MEAN_ANOMALY": 22.5727,
    "EPHEMERIS_TYPE": 0,
    "CLASSIFICATION_TYPE": "U",
    "NORAD_CAT_ID": 41884,
    "ELEMENT_SET_NO": 999,
    "REV_AT_EPOCH": 53214,
    "BSTAR": 0.00024087788,
    "MEAN_MOTION_DOT": 0.00018419,
    "MEAN_MOTION_DDOT": 0
   }
  },
  {
   "norad": 41890,
   "name": "CYGFM07",
   "intl": "2016-078G",
   "group": "weather",
   "gcat": {
    "class": "C",
    "category": "EOSCI",
    "owner": "LARCN/SWRIB",
    "state": "US"
   },
   "omm": {
    "OBJECT_NAME": "CYGFM07",
    "OBJECT_ID": "2016-078G",
    "EPOCH": "2026-07-08T21:34:48.448704",
    "MEAN_MOTION": 15.61296732,
    "ECCENTRICITY": 0.00056002,
    "INCLINATION": 34.9441,
    "RA_OF_ASC_NODE": 84.9024,
    "ARG_OF_PERICENTER": 16.9234,
    "MEAN_ANOMALY": 343.1678,
    "EPHEMERIS_TYPE": 0,
    "CLASSIFICATION_TYPE": "U",
    "NORAD_CAT_ID": 41890,
    "ELEMENT_SET_NO": 999,
    "REV_AT_EPOCH": 53239,
    "BSTAR": 0.00024760183,
    "MEAN_MOTION_DOT": 0.0002178,
    "MEAN_MOTION_DDOT": 0
   }
  },
  {
   "norad": 41888,
   "name": "CYGFM08",
   "intl": "2016-078E",
   "group": "weather",
   "gcat": {
    "class": "C",
    "category": "EOSCI",
    "owner": "LARCN/SWRIB",
    "state": "US"
   },
   "omm": {
    "OBJECT_NAME": "CYGFM08",
    "OBJECT_ID": "2016-078E",
    "EPOCH": "2026-07-08T22:35:39.315264",
    "MEAN_MOTION": 15.61190986,
    "ECCENTRICITY": 0.0007378,
    "INCLINATION": 34.9421,
    "RA_OF_ASC_NODE": 96.2986,
    "ARG_OF_PERICENTER": 4.9476,
    "MEAN_ANOMALY": 355.1322,
    "EPHEMERIS_TYPE": 0,
    "CLASSIFICATION_TYPE": "U",
    "NORAD_CAT_ID": 41888,
    "ELEMENT_SET_NO": 999,
    "REV_AT_EPOCH": 53237,
    "BSTAR": 0.00024692786,
    "MEAN_MOTION_DOT": 0.00021644,
    "MEAN_MOTION_DDOT": 0
   }
  },
  {
   "norad": 35681,
   "name": "DEIMOS-1",
   "intl": "2009-041A",
   "group": "resource",
   "gcat": {
    "class": "B",
    "category": "IMG",
    "owner": "DEIMOS",
    "state": "E"
   },
   "omm": {
    "OBJECT_NAME": "DEIMOS-1",
    "OBJECT_ID": "2009-041A",
    "EPOCH": "2026-07-08T23:00:29.625408",
    "MEAN_MOTION": 14.75261158,
    "ECCENTRICITY": 0.00026373,
    "INCLINATION": 97.7431,
    "RA_OF_ASC_NODE": 346.2455,
    "ARG_OF_PERICENTER": 101.5397,
    "MEAN_ANOMALY": 258.6109,
    "EPHEMERIS_TYPE": 0,
    "CLASSIFICATION_TYPE": "U",
    "NORAD_CAT_ID": 35681,
    "ELEMENT_SET_NO": 999,
    "REV_AT_EPOCH": 91009,
    "BSTAR": 0.000079612437,
    "MEAN_MOTION_DOT": 0.00000491,
    "MEAN_MOTION_DDOT": 0
   }
  },
  {
   "norad": 40013,
   "name": "DEIMOS-2",
   "intl": "2014-033D",
   "group": "resource",
   "gcat": {
    "class": "B",
    "category": "IMG",
    "owner": "ELDEC",
    "state": "E"
   },
   "omm": {
    "OBJECT_NAME": "DEIMOS-2",
    "OBJECT_ID": "2014-033D",
    "EPOCH": "2026-07-08T22:53:39.502752",
    "MEAN_MOTION": 14.93790337,
    "ECCENTRICITY": 0.00011146,
    "INCLINATION": 97.5806,
    "RA_OF_ASC_NODE": 63.6759,
    "ARG_OF_PERICENTER": 81.737,
    "MEAN_ANOMALY": 278.3977,
    "EPHEMERIS_TYPE": 0,
    "CLASSIFICATION_TYPE": "U",
    "NORAD_CAT_ID": 40013,
    "ELEMENT_SET_NO": 999,
    "REV_AT_EPOCH": 64097,
    "BSTAR": 0.00011546068,
    "MEAN_MOTION_DOT": 0.0000117,
    "MEAN_MOTION_DDOT": 0
   }
  },
  {
   "norad": 25757,
   "name": "DLR-TUBSAT",
   "intl": "1999-029B",
   "group": "resource",
   "gcat": {
    "class": null,
    "category": null,
    "owner": null,
    "state": null
   },
   "omm": {
    "OBJECT_NAME": "DLR-TUBSAT",
    "OBJECT_ID": "1999-029B",
    "EPOCH": "2026-07-08T22:11:54.096288",
    "MEAN_MOTION": 14.52432344,
    "ECCENTRICITY": 0.00130079,
    "INCLINATION": 98.6706,
    "RA_OF_ASC_NODE": 186.1452,
    "ARG_OF_PERICENTER": 285.5031,
    "MEAN_ANOMALY": 74.4727,
    "EPHEMERIS_TYPE": 0,
    "CLASSIFICATION_TYPE": "U",
    "NORAD_CAT_ID": 25757,
    "ELEMENT_SET_NO": 999,
    "REV_AT_EPOCH": 43640,
    "BSTAR": 0.000023559454,
    "MEAN_MOTION_DOT": 4.7e-7,
    "MEAN_MOTION_DDOT": 0
   }
  },
  {
   "norad": 28054,
   "name": "DMSP 5D-3 F16 (USA 172)",
   "intl": "2003-048A",
   "group": "weather",
   "gcat": {
    "class": null,
    "category": null,
    "owner": null,
    "state": null
   },
   "omm": {
    "OBJECT_NAME": "DMSP 5D-3 F16 (USA 172)",
    "OBJECT_ID": "2003-048A",
    "EPOCH": "2026-07-08T23:05:08.159136",
    "MEAN_MOTION": 14.14484945,
    "ECCENTRICITY": 0.00082034,
    "INCLINATION": 98.9886,
    "RA_OF_ASC_NODE": 213.9337,
    "ARG_OF_PERICENTER": 86.5171,
    "MEAN_ANOMALY": 27.8401,
    "EPHEMERIS_TYPE": 0,
    "CLASSIFICATION_TYPE": "U",
    "NORAD_CAT_ID": 28054,
    "ELEMENT_SET_NO": 999,
    "REV_AT_EPOCH": 17256,
    "BSTAR": 0.000003053905,
    "MEAN_MOTION_DOT": -3.9e-7,
    "MEAN_MOTION_DDOT": 0
   }
  },
  {
   "norad": 29522,
   "name": "DMSP 5D-3 F17 (USA 191)",
   "intl": "2006-050A",
   "group": "weather",
   "gcat": {
    "class": "D",
    "category": "MET",
    "owner": "AFSMC",
    "state": "US"
   },
   "omm": {
    "OBJECT_NAME": "DMSP 5D-3 F17 (USA 191)",
    "OBJECT_ID": "2006-050A",
    "EPOCH": "2026-07-08T22:46:12.003456",
    "MEAN_MOTION": 14.14995892,
    "ECCENTRICITY": 0.0010101,
    "INCLINATION": 98.7383,
    "RA_OF_ASC_NODE": 196.0738,
    "ARG_OF_PERICENTER": 0.9288,
    "MEAN_ANOMALY": 359.1902,
    "EPHEMERIS_TYPE": 0,
    "CLASSIFICATION_TYPE": "U",
    "NORAD_CAT_ID": 29522,
    "ELEMENT_SET_NO": 999,
    "REV_AT_EPOCH": 1550,
    "BSTAR": 0.000010975074,
    "MEAN_MOTION_DOT": -2.2e-7,
    "MEAN_MOTION_DDOT": 0
   }
  },
  {
   "norad": 35951,
   "name": "DMSP 5D-3 F18 (USA 210)",
   "intl": "2009-057A",
   "group": "weather",
   "gcat": {
    "class": "D",
    "category": "MET",
    "owner": "AFSMC",
    "state": "US"
   },
   "omm": {
    "OBJECT_NAME": "DMSP 5D-3 F18 (USA 210)",
    "OBJECT_ID": "2009-057A",
    "EPOCH": "2026-07-08T22:06:59.123232",
    "MEAN_MOTION": 14.14908712,
    "ECCENTRICITY": 0.00108488,
    "INCLINATION": 98.905,
    "RA_OF_ASC_NODE": 170.6447,
    "ARG_OF_PERICENTER": 183.2334,
    "MEAN_ANOMALY": 176.8771,
    "EPHEMERIS_TYPE": 0,
    "CLASSIFICATION_TYPE": "U",
    "NORAD_CAT_ID": 35951,
    "ELEMENT_SET_NO": 999,
    "REV_AT_EPOCH": 86266,
    "BSTAR": 0.000133862,
    "MEAN_MOTION_DOT": 0.00000214,
    "MEAN_MOTION_DDOT": 0
   }
  },
  {
   "norad": 35682,
   "name": "DUBAISAT-1",
   "intl": "2009-041B",
   "group": "resource",
   "gcat": {
    "class": null,
    "category": null,
    "owner": null,
    "state": null
   },
   "omm": {
    "OBJECT_NAME": "DUBAISAT-1",
    "OBJECT_ID": "2009-041B",
    "EPOCH": "2026-07-08T20:42:30.033504",
    "MEAN_MOTION": 14.7516012,
    "ECCENTRICITY": 0.00104179,
    "INCLINATION": 98.0077,
    "RA_OF_ASC_NODE": 322.8864,
    "ARG_OF_PERICENTER": 9.1871,
    "MEAN_ANOMALY": 350.9527,
    "EPHEMERIS_TYPE": 0,
    "CLASSIFICATION_TYPE": "U",
    "NORAD_CAT_ID": 35682,
    "ELEMENT_SET_NO": 999,
    "REV_AT_EPOCH": 90829,
    "BSTAR": 0.000096115218,
    "MEAN_MOTION_DOT": 0.00000598,
    "MEAN_MOTION_DDOT": 0
   }
  }
 ]
}
